{
  "type": "FeatureCollection",
  "features": [
    {
      "type": "Feature",
      "properties": {
        "norad_id": 30368,
        "name": "FENGYUN 1C DEB",
        "group": "fengyun-1c-debris",
        "lat": -0.254595312787037,
        "lon": -79.25543279434014,
        "alt_km": 1017.6300673071519,
        "timestamp": "2025-12-21T03:56:51.112169+00:00",
        "meta_object_name": "FENGYUN 1C DEB",
        "meta_object_id": "1999-025ACF",
        "meta_epoch": "2025-12-20T19:05:30.196896",
        "meta_mean_motion": 13.75373232,
        "meta_eccentricity": 0.018622,
        "meta_inclination": 99.1885,
        "meta_ra_of_asc_node": 100.4301,
        "meta_arg_of_pericenter": 286.6895,
        "meta_mean_anomaly": 229.483,
        "meta_ephemeris_type": 0,
        "meta_classification_type": "U",
        "meta_norad_cat_id": 30368,
        "meta_element_set_no": 999,
        "meta_rev_at_epoch": 94772,
        "meta_bstar": 0.00039389,
        "meta_mean_motion_dot": 3.85e-06,
        "meta_mean_motion_ddot": 0,
        "tle_line1": "1 30368U 99025ACF 25354.79548839  .00000385  00000+0  39389-3 0  9997",
        "tle_line2": "2 30368  99.1885 100.4301 0186220 286.6895 229.4830 13.75373232947727"
      },
      "geometry": {
        "type": "Point",
        "coordinates": [
          -79.25543279434014,
          -0.254595312787037
        ]
      }
    },
    {
      "type": "Feature",
      "properties": {
        "norad_id": 30369,
        "name": "FENGYUN 1C DEB",
        "group": "fengyun-1c-debris",
        "lat": 81.13918527643843,
        "lon": -87.6509885463118,
        "alt_km": 835.4530348514882,
        "timestamp": "2025-12-21T03:56:51.112179+00:00",
        "meta_object_name": "FENGYUN 1C DEB",
        "meta_object_id": "1999-025ACG",
        "meta_epoch": "2025-12-20T18:10:09.119136",
        "meta_mean_motion": 14.12062993,
        "meta_eccentricity": 0.0099579,
        "meta_inclination": 98.7213,
        "meta_ra_of_asc_node": 351.894,
        "meta_arg_of_pericenter": 172.677,
        "meta_mean_anomaly": 6.9308,
        "meta_ephemeris_type": 0,
        "meta_classification_type": "U",
        "meta_norad_cat_id": 30369,
        "meta_element_set_no": 999,
        "meta_rev_at_epoch": 97359,
        "meta_bstar": 0.00015295,
        "meta_mean_motion_dot": 2.51e-06,
        "meta_mean_motion_ddot": 0,
        "tle_line1": "1 30369U 99025ACG 25354.75704999  .00000251  00000+0  15295-3 0  9997",
        "tle_line2": "2 30369  98.7213 351.8940 0099579 172.6770   6.9308 14.12062993973598"
      },
      "geometry": {
        "type": "Point",
        "coordinates": [
          -87.6509885463118,
          81.13918527643843
        ]
      }
    },
    {
      "type": "Feature",
      "properties": {
        "norad_id": 30370,
        "name": "FENGYUN 1C DEB",
        "group": "fengyun-1c-debris",
        "lat": -48.23364961044448,
        "lon": -138.9894253546166,
        "alt_km": 803.0066788822123,
        "timestamp": "2025-12-21T03:56:51.112189+00:00",
        "meta_object_name": "FENGYUN 1C DEB",
        "meta_object_id": "1999-025ACH",
        "meta_epoch": "2025-12-20T15:44:01.604832",
        "meta_mean_motion": 14.19187925,
        "meta_eccentricity": 0.0099499,
        "meta_inclination": 99.0561,
        "meta_ra_of_asc_node": 50.7783,
        "meta_arg_of_pericenter": 294.5385,
        "meta_mean_anomaly": 216.8579,
        "meta_ephemeris_type": 0,
        "meta_classification_type": "U",
        "meta_norad_cat_id": 30370,
        "meta_element_set_no": 999,
        "meta_rev_at_epoch": 97206,
        "meta_bstar": 0.00082155,
        "meta_mean_motion_dot": 1.76e-05,
        "meta_mean_motion_ddot": 0,
        "tle_line1": "1 30370U 99025ACH 25354.65557413  .00001760  00000+0  82155-3 0  9990",
        "tle_line2": "2 30370  99.0561  50.7783 0099499 294.5385 216.8579 14.19187925972060"
      },
      "geometry": {
        "type": "Point",
        "coordinates": [
          -138.9894253546166,
          -48.23364961044448
        ]
      }
    },
    {
      "type": "Feature",
      "properties": {
        "norad_id": 30371,
        "name": "FENGYUN 1C DEB",
        "group": "fengyun-1c-debris",
        "lat": -42.06269993811751,
        "lon": -149.78094734460393,
        "alt_km": 797.0211032789211,
        "timestamp": "2025-12-21T03:56:51.112198+00:00",
        "meta_object_name": "FENGYUN 1C DEB",
        "meta_object_id": "1999-025ACJ",
        "meta_epoch": "2025-12-20T15:42:25.547040",
        "meta_mean_motion": 14.30270038,
        "meta_eccentricity": 0.0006864,
        "meta_inclination": 98.575,
        "meta_ra_of_asc_node": 37.5421,
        "meta_arg_of_pericenter": 309.7704,
        "meta_mean_anomaly": 168.2948,
        "meta_ephemeris_type": 0,
        "meta_classification_type": "U",
        "meta_norad_cat_id": 30371,
        "meta_element_set_no": 999,
        "meta_rev_at_epoch": 98016,
        "meta_bstar": 0.00069969,
        "meta_mean_motion_dot": 1.772e-05,
        "meta_mean_motion_ddot": 0,
        "tle_line1": "1 30371U 99025ACJ 25354.65446235  .00001772  00000+0  69969-3 0  9991",
        "tle_line2": "2 30371  98.5750  37.5421 0006864 309.7704 168.2948 14.30270038980166"
      },
      "geometry": {
        "type": "Point",
        "coordinates": [
          -149.78094734460393,
          -42.06269993811751
        ]
      }
    },
    {
      "type": "Feature",
      "properties": {
        "norad_id": 30374,
        "name": "FENGYUN 1C DEB",
        "group": "fengyun-1c-debris",
        "lat": 9.038958454021296,
        "lon": 41.20045357952581,
        "alt_km": 665.8633458243376,
        "timestamp": "2025-12-21T03:56:51.112207+00:00",
        "meta_object_name": "FENGYUN 1C DEB",
        "meta_object_id": "1999-025ACM",
        "meta_epoch": "2025-12-20T14:16:26.178816",
        "meta_mean_motion": 14.61379529,
        "meta_eccentricity": 0.0039546,
        "meta_inclination": 99.2725,
        "meta_ra_of_asc_node": 219.0733,
        "meta_arg_of_pericenter": 143.7514,
        "meta_mean_anomaly": 271.1288,
        "meta_ephemeris_type": 0,
        "meta_classification_type": "U",
        "meta_norad_cat_id": 30374,
        "meta_element_set_no": 999,
        "meta_rev_at_epoch": 99037,
        "meta_bstar": 0.00088254,
        "meta_mean_motion_dot": 4.356e-05,
        "meta_mean_motion_ddot": 0,
        "tle_line1": "1 30374U 99025ACM 25354.59474744  .00004356  00000+0  88254-3 0  9992",
        "tle_line2": "2 30374  99.2725 219.0733 0039546 143.7514 271.1288 14.61379529990374"
      },
      "geometry": {
        "type": "Point",
        "coordinates": [
          41.20045357952581,
          9.038958454021296
        ]
      }
    },
    {
      "type": "Feature",
      "properties": {
        "norad_id": 30377,
        "name": "FENGYUN 1C DEB",
        "group": "fengyun-1c-debris",
        "lat": -63.966610789120345,
        "lon": 175.71765133233367,
        "alt_km": 818.0341527029314,
        "timestamp": "2025-12-21T03:56:51.112216+00:00",
        "meta_object_name": "FENGYUN 1C DEB",
        "meta_object_id": "1999-025ACQ",
        "meta_epoch": "2025-12-20T01:23:23.194176",
        "meta_mean_motion": 13.99178424,
        "meta_eccentricity": 0.0117962,
        "meta_inclination": 98.8926,
        "meta_ra_of_asc_node": 13.338,
        "meta_arg_of_pericenter": 246.2605,
        "meta_mean_anomaly": 188.2753,
        "meta_ephemeris_type": 0,
        "meta_classification_type": "U",
        "meta_norad_cat_id": 30377,
        "meta_element_set_no": 999,
        "meta_rev_at_epoch": 96309,
        "meta_bstar": 0.00029608654,
        "meta_mean_motion_dot": 4.12e-06,
        "meta_mean_motion_ddot": 0,
        "tle_line1": "1 30377U 99025ACQ 25354.05790734  .00000412  00000+0  29609-3 0  9994",
        "tle_line2": "2 30377  98.8926  13.3380 0117962 246.2605 188.2753 13.99178424963092"
      },
      "geometry": {
        "type": "Point",
        "coordinates": [
          175.71765133233367,
          -63.966610789120345
        ]
      }
    },
    {
      "type": "Feature",
      "properties": {
        "norad_id": 30379,
        "name": "FENGYUN 1C DEB",
        "group": "fengyun-1c-debris",
        "lat": -81.06360520340914,
        "lon": 88.26774651116007,
        "alt_km": 848.7556916441117,
        "timestamp": "2025-12-21T03:56:51.112225+00:00",
        "meta_object_name": "FENGYUN 1C DEB",
        "meta_object_id": "1999-025ACS",
        "meta_epoch": "2025-12-20T13:47:31.184736",
        "meta_mean_motion": 14.08042493,
        "meta_eccentricity": 0.0035548,
        "meta_inclination": 98.7578,
        "meta_ra_of_asc_node": 9.0831,
        "meta_arg_of_pericenter": 256.5004,
        "meta_mean_anomaly": 267.0663,
        "meta_ephemeris_type": 0,
        "meta_classification_type": "U",
        "meta_norad_cat_id": 30379,
        "meta_element_set_no": 999,
        "meta_rev_at_epoch": 96927,
        "meta_bstar": 0.00030489,
        "meta_mean_motion_dot": 4.79e-06,
        "meta_mean_motion_ddot": 0,
        "tle_line1": "1 30379U 99025ACS 25354.57466649  .00000479  00000+0  30489-3 0  9999",
        "tle_line2": "2 30379  98.7578   9.0831 0035548 256.5004 267.0663 14.08042493969274"
      },
      "geometry": {
        "type": "Point",
        "coordinates": [
          88.26774651116007,
          -81.06360520340914
        ]
      }
    }
  ]
}